{
    "links": {
        "self": "http://www.neowsapp.com/rest/v1/neo/54051132?api_key=iIulBulltgU6a56xZRHN4H3l9WmuAYTsLGpBGhQ2"
    },
    "id": "54051132",
    "neo_reference_id": "54051132",
    "name": "(2020 OT7)",
    "designation": "2020 OT7",
    "nasa_jpl_url": "http://ssd.jpl.nasa.gov/sbdb.cgi?sstr=54051132",
    "absolute_magnitude_h": 24.307,
    "estimated_diameter": {
        "kilometers": {
            "estimated_diameter_min": 0.0365725276,
            "estimated_diameter_max": 0.0817786579
        },
        "meters": {
            "estimated_diameter_min": 36.5725276234,
            "estimated_diameter_max": 81.7786578748
        },
        "miles": {
            "estimated_diameter_min": 0.0227251081,
            "estimated_diameter_max": 0.0508148864
        },
        "feet": {
            "estimated_diameter_min": 119.9886115278,
            "estimated_diameter_max": 268.3026919021
        }
    },
    "is_potentially_hazardous_asteroid": false,
    "close_approach_data": [
        {
            "close_approach_date": "2014-08-06",
            "close_approach_date_full": "2014-Aug-06 14:08",
            "epoch_date_close_approach": 1407334080000,
            "relative_velocity": {
                "kilometers_per_second": "6.1514082601",
                "kilometers_per_hour": "22145.06973627",
                "miles_per_hour": "13760.0851369617"
            },
            "miss_distance": {
                "astronomical": "1.551265185",
                "lunar": "603.442156965",
                "kilometers": "232065967.48115595",
                "miles": "144199105.59141411"
            },
            "orbiting_body": "Juptr"
        },
        {
            "close_approach_date": "2020-07-26",
            "close_approach_date_full": "2020-Jul-26 04:16",
            "epoch_date_close_approach": 1595736960000,
            "relative_velocity": {
                "kilometers_per_second": "12.666184822",
                "kilometers_per_hour": "45598.2653590765",
                "miles_per_hour": "28332.9888282551"
            },
            "miss_distance": {
                "astronomical": "0.2146938128",
                "lunar": "83.5158931792",
                "kilometers": "32117737.097058736",
                "miles": "19957036.4120371168"
            },
            "orbiting_body": "Earth"
        },
        {
            "close_approach_date": "2024-09-14",
            "close_approach_date_full": "2024-Sep-14 02:29",
            "epoch_date_close_approach": 1726280940000,
            "relative_velocity": {
                "kilometers_per_second": "20.3067567835",
                "kilometers_per_hour": "73104.3244205377",
                "miles_per_hour": "45424.1842489725"
            },
            "miss_distance": {
                "astronomical": "0.3615570711",
                "lunar": "140.6457006579",
                "kilometers": "54088167.719998557",
                "miles": "33608828.9590998066"
            },
            "orbiting_body": "Earth"
        },
        {
            "close_approach_date": "2026-10-18",
            "close_approach_date_full": "2026-Oct-18 22:38",
            "epoch_date_close_approach": 1792363080000,
            "relative_velocity": {
                "kilometers_per_second": "4.8937941239",
                "kilometers_per_hour": "17617.6588461768",
                "miles_per_hour": "10946.9280758369"
            },
            "miss_distance": {
                "astronomical": "1.3155098785",
                "lunar": "511.7333427365",
                "kilometers": "196797475.787558795",
                "miles": "122284281.056929571"
            },
            "orbiting_body": "Juptr"
        }
    ],
    "orbital_data": {
        "orbit_id": "1",
        "orbit_determination_date": "2020-08-17 17:42:24",
        "first_observation_date": "2020-07-21",
        "last_observation_date": "2020-08-14",
        "data_arc_in_days": 24,
        "observations_used": 44,
        "orbit_uncertainty": "7",
        "minimum_orbit_intersection": ".056161",
        "jupiter_tisserand_invariant": "3.109",
        "epoch_osculation": "2459000.5",
        "eccentricity": ".5936619601067634",
        "semi_major_axis": "2.55750540780415",
        "inclination": "17.85299285404395",
        "ascending_node_longitude": "331.565369469322",
        "orbital_period": "1493.90598754394",
        "perihelion_distance": "1.039211734423491",
        "perihelion_argument": "336.1246581793126",
        "aphelion_distance": "4.075799081184809",
        "perihelion_time": "2459052.097910031418",
        "mean_anomaly": "347.5659862359551",
        "mean_motion": ".2409790194307067",
        "equinox": "J2000",
        "orbit_class": {
            "orbit_class_type": "AMO",
            "orbit_class_description": "Near-Earth asteroid orbits similar to that of 1221 Amor",
            "orbit_class_range": "1.017 AU < q (perihelion) < 1.3 AU"
        }
    },
    "is_sentry_object": false
}